HST                     
1 20580U 90037B   26068.15977042  .00009063  00000+0  30023-3 0  9999
2 20580  28.4717  43.6133 0001837 120.9992 239.0785 15.29473555773239
STARLINK-34205          
1 64741U 25144T   26068.57258781  .00037490  00000+0  12715-2 0  9993
2 64741  53.1600 181.6051 0001140  84.7682 275.3449 15.30199271 39691
